ONEWEB-0589             
1 54655U 22166P   25134.57935316 -.00000001  00000+0 -34261-4 0  9998
2 54655  87.9246 323.4879 0002309  68.4863 291.6517 13.21826039118880
ONEWEB-0590             
1 54656U 22166Q   25134.60285524  .00000010  00000+0 -81114-5 0  9991
2 54656  87.9232 323.4688 0002265  94.7989 265.3404 13.21823440118871
ONEWEB-0591             
1 54657U 22166R   25134.53992570  .00000058  00000+0  10783-3 0  9993
2 54657  87.9245 323.4963 0001920  85.5975 274.5378 13.21826994118893
ONEWEB-0592             
1 54658U 22166S   25134.92156211  .00000051  00000+0  92356-4 0  9991
2 54658  87.9241 323.3738 0001959  86.9860 273.1498 13.21826155118829
ONEWEB-0593             
1 54659U 22166T   25134.56673651  .00000025  00000+0  28668-4 0  9990
2 54659  87.9246 323.4819 0001896  83.8109 276.3240 13.21826373118886
ONEWEB-0594             
1 54660U 22166U   25134.58564932 -.00000005  00000+0 -42788-4 0  9994
2 54660  87.9249 323.4897 0001732  89.2584 270.8749 13.21827443118908
ONEWEB-0595             
1 54661U 22166V   25134.56357937  .00000049  00000+0  86592-4 0  9995
2 54661  87.9246 323.4731 0001820  95.7532 264.3809 13.21826307119348
ONEWEB-0596             
1 54662U 22166W   25134.53676677  .00000043  00000+0  72730-4 0  9991
2 54662  87.9249 323.4905 0001879  90.4744 269.6605 13.21826340118872
